{"type": "FeatureCollection", "features": [ {"type": "Feature", "properties": {"norad_id": 66828, "name": "STARLINK-35982", "group": "last-30-days", "lat": 65.22288721525118, "lon": -41.07446119700275, "alt_km": 350.9701658497761, "timestamp": "2025-12-15T11:38:35.907004+00:00", "meta": {"OBJECT_NAME": "STARLINK-35982", "OBJECT_ID": "2025-280H", "EPOCH": "2025-12-14T20:00:06.000192", "MEAN_MOTION": 15.73298099, "ECCENTRICITY": 0.00035534, "INCLINATION": 69.9967, "RA_OF_ASC_NODE": 192.8783, "ARG_OF_PERICENTER": 271.7699, "MEAN_ANOMALY": 105.6061, "EPHEMERIS_TYPE": 0, "CLASSIFICATION_TYPE": "U", "NORAD_CAT_ID": 66828, "ELEMENT_SET_NO": 999, "REV_AT_EPOCH": 323, "BSTAR": -0.013188516, "MEAN_MOTION_DOT": -0.01625461, "MEAN_MOTION_DDOT": 0}, "tle": {"line1": "1 66828U 25280H   25348.83340278 -.01625461  00000+0 -13189-1 0  9993", "line2": "2 66828  69.9967 192.8783 0003553 271.7699 105.6061 15.73298099  3233"}}, "geometry": {"type": "Point", "coordinates": [-41.07446119700275, 65.22288721525118]}}, {"type": "Feature", "properties": {"norad_id": 66829, "name": "STARLINK-36084", "group": "last-30-days", "lat": 66.26990534208613, "lon": -44.92542705358853, "alt_km": 350.8132650300895, "timestamp": "2025-12-15T11:38:35.907014+00:00", "meta": {"OBJECT_NAME": "STARLINK-36084", "OBJECT_ID": "2025-280J", "EPOCH": "2025-12-14T20:00:06.000192", "MEAN_MOTION": 15.73315507, "ECCENTRICITY": 0.0003632, "INCLINATION": 69.9963, "RA_OF_ASC_NODE": 192.8813, "ARG_OF_PERICENTER": 268.6603, "MEAN_ANOMALY": 106.7626, "EPHEMERIS_TYPE": 0, "CLASSIFICATION_TYPE": "U", "NORAD_CAT_ID": 66829, "ELEMENT_SET_NO": 999, "REV_AT_EPOCH": 307, "BSTAR": -0.013080526, "MEAN_MOTION_DOT": -0.01614753, "MEAN_MOTION_DDOT": 0}, "tle": {"line1": "1 66829U 25280J   25348.83340278 -.01614753  00000+0 -13081-1 0  9997", "line2": "2 66829  69.9963 192.8813 0003632 268.6603 106.7626 15.73315507  3077"}}, "geometry": {"type": "Point", "coordinates": [-44.92542705358853, 66.26990534208613]}}, {"type": "Feature", "properties": {"norad_id": 66830, "name": "STARLINK-35881", "group": "last-30-days", "lat": 64.0700507443228, "lon": -37.48943752468157, "alt_km": 350.9672613376706, "timestamp": "2025-12-15T11:38:35.907026+00:00", "meta": {"OBJECT_NAME": "STARLINK-35881", "OBJECT_ID": "2025-280K", "EPOCH": "2025-12-14T20:00:06.000192", "MEAN_MOTION": 15.73302433, "ECCENTRICITY": 0.00034075, "INCLINATION": 69.9963, "RA_OF_ASC_NODE": 192.8751, "ARG_OF_PERICENTER": 271.2578, "MEAN_ANOMALY": 108.0345, "EPHEMERIS_TYPE": 0, "CLASSIFICATION_TYPE": "U", "NORAD_CAT_ID": 66830, "ELEMENT_SET_NO": 999, "REV_AT_EPOCH": 323, "BSTAR": -0.013229785, "MEAN_MOTION_DOT": -0.01630133, "MEAN_MOTION_DDOT": 0}, "tle": {"line1": "1 66830U 25280K   25348.83340278 -.01630133  00000+0 -13230-1 0  9995", "line2": "2 66830  69.9963 192.8751 0003407 271.2578 108.0345 15.73302433  3236"}}, "geometry": {"type": "Point", "coordinates": [-37.48943752468157, 64.0700507443228]}}, {"type": "Feature", "properties": {"norad_id": 66831, "name": "STARLINK-35788", "group": "last-30-days", "lat": 62.836801330728576, "lon": -34.195902541056626, "alt_km": 351.13173248766543, "timestamp": "2025-12-15T11:38:35.907036+00:00", "meta": {"OBJECT_NAME": "STARLINK-35788", "OBJECT_ID": "2025-280L", "EPOCH": "2025-12-14T20:00:06.000192", "MEAN_MOTION": 15.7330473, "ECCENTRICITY": 0.00034752, "INCLINATION": 69.997, "RA_OF_ASC_NODE": 192.8735, "ARG_OF_PERICENTER": 272.6306, "MEAN_ANOMALY": 108.5739, "EPHEMERIS_TYPE": 0, "CLASSIFICATION_TYPE": "U", "NORAD_CAT_ID": 66831, "ELEMENT_SET_NO": 999, "REV_AT_EPOCH": 323, "BSTAR": -0.013228671, "MEAN_MOTION_DOT": -0.01630211, "MEAN_MOTION_DDOT": 0}, "tle": {"line1": "1 66831U 25280L   25348.83340278 -.01630211  00000+0 -13229-1 0  9991", "line2": "2 66831  69.9970 192.8735 0003475 272.6306 108.5739 15.73304730  3230"}}, "geometry": {"type": "Point", "coordinates": [-34.195902541056626, 62.836801330728576]}}, {"type": "Feature", "properties": {"norad_id": 66832, "name": "STARLINK-35768", "group": "last-30-days", "lat": 61.539225929866234, "lon": -31.193845947334115, "alt_km": 351.2352711491458, "timestamp": "2025-12-15T11:38:35.907046+00:00", "meta": {"OBJECT_NAME": "STARLINK-35768", "OBJECT_ID": "2025-280M", "EPOCH": "2025-12-14T20:00:06.000192", "MEAN_MOTION": 15.73307005, "ECCENTRICITY": 0.00034468, "INCLINATION": 69.9965, "RA_OF_ASC_NODE": 192.8702, "ARG_OF_PERICENTER": 271.6698, "MEAN_ANOMALY": 111.4488, "EPHEMERIS_TYPE": 0, "CLASSIFICATION_TYPE": "U", "NORAD_CAT_ID": 66832, "ELEMENT_SET_NO": 999, "REV_AT_EPOCH": 323, "BSTAR": -0.01328351, "MEAN_MOTION_DOT": -0.01636338, "MEAN_MOTION_DDOT": 0}, "tle": {"line1": "1 66832U 25280M   25348.83340278 -.01636338  00000+0 -13284-1 0  9999", "line2": "2 66832  69.9965 192.8702 0003446 271.6698 111.4488 15.73307005  3232"}}, "geometry": {"type": "Point", "coordinates": [-31.193845947334115, 61.539225929866234]}}, {"type": "Feature", "properties": {"norad_id": 66833, "name": "STARLINK-35858", "group": "last-30-days", "lat": 60.17146316561702, "lon": -28.41620443906775, "alt_km": 351.41342284873826, "timestamp": "2025-12-15T11:38:35.907057+00:00", "meta": {"OBJECT_NAME": "STARLINK-35858", "OBJECT_ID": "2025-280N", "EPOCH": "2025-12-14T20:00:06.000192", "MEAN_MOTION": 15.73295224, "ECCENTRICITY": 0.0003543, "INCLINATION": 69.9968, "RA_OF_ASC_NODE": 192.8686, "ARG_OF_PERICENTER": 272.0389, "MEAN_ANOMALY": 113.0053, "EPHEMERIS_TYPE": 0, "CLASSIFICATION_TYPE": "U", "NORAD_CAT_ID": 66833, "ELEMENT_SET_NO": 999, "REV_AT_EPOCH": 323, "BSTAR": -0.013169817, "MEAN_MOTION_DOT": -0.01623222, "MEAN_MOTION_DDOT": 0}, "tle": {"line1": "1 66833U 25280N   25348.83340278 -.01623222  00000+0 -13170-1 0  9992", "line2": "2 66833  69.9968 192.8686 0003543 272.0389 113.0053 15.73295224  3232"}}, "geometry": {"type": "Point", "coordinates": [-28.41620443906775, 60.17146316561702]}}, {"type": "Feature", "properties": {"norad_id": 66834, "name": "STARLINK-35840", "group": "last-30-days", "lat": 58.75826050702895, "lon": -25.882885062281012, "alt_km": 351.4572631795945, "timestamp": "2025-12-15T11:38:35.907067+00:00", "meta": {"OBJECT_NAME": "STARLINK-35840", "OBJECT_ID": "2025-280P", "EPOCH": "2025-12-14T20:00:06.000192", "MEAN_MOTION": 15.73292113, "ECCENTRICITY": 0.00034626, "INCLINATION": 69.9959, "RA_OF_ASC_NODE": 192.8655, "ARG_OF_PERICENTER": 269.4457, "MEAN_ANOMALY": 117.5158, "EPHEMERIS_TYPE": 0, "CLASSIFICATION_TYPE": "U", "NORAD_CAT_ID": 66834, "ELEMENT_SET_NO": 999, "REV_AT_EPOCH": 323, "BSTAR": -0.01316626, "MEAN_MOTION_DOT": -0.01622572, "MEAN_MOTION_DDOT": 0}, "tle": {"line1": "1 66834U 25280P   25348.83340278 -.01622572  00000+0 -13166-1 0  9995", "line2": "2 66834  69.9959 192.8655 0003462 269.4457 117.5158 15.73292113  3234"}}, "geometry": {"type": "Point", "coordinates": [-25.882885062281012, 58.75826050702895]}}, {"type": "Feature", "properties": {"norad_id": 66835, "name": "STARLINK-35890", "group": "last-30-days", "lat": 57.29008997357789, "lon": -23.534089604558194, "alt_km": 351.66202410191454, "timestamp": "2025-12-15T11:38:35.907077+00:00", "meta": {"OBJECT_NAME": "STARLINK-35890", "OBJECT_ID": "2025-280Q", "EPOCH": "2025-12-14T20:00:06.000192", "MEAN_MOTION": 15.73293587, "ECCENTRICITY": 0.00034853, "INCLINATION": 69.9959, "RA_OF_ASC_NODE": 192.8633, "ARG_OF_PERICENTER": 271.5863, "MEAN_ANOMALY": 117.2969, "EPHEMERIS_TYPE": 0, "CLASSIFICATION_TYPE": "U", "NORAD_CAT_ID": 66835, "ELEMENT_SET_NO": 999, "REV_AT_EPOCH": 323, "BSTAR": -0.013184922, "MEAN_MOTION_DOT": -0.01624729, "MEAN_MOTION_DDOT": 0}, "tle": {"line1": "1 66835U 25280Q   25348.83340278 -.01624729  00000+0 -13185-1 0  9993", "line2": "2 66835  69.9959 192.8633 0003485 271.5863 117.2969 15.73293587  3234"}}, "geometry": {"type": "Point", "coordinates": [-23.534089604558194, 57.29008997357789]}}, {"type": "Feature", "properties": {"norad_id": 66836, "name": "STARLINK-35838", "group": "last-30-days", "lat": 55.75073822161495, "lon": -21.32576819231468, "alt_km": 352.27442353210427, "timestamp": "2025-12-15T11:38:35.907089+00:00", "meta": {"OBJECT_NAME": "STARLINK-35838", "OBJECT_ID": "2025-280R", "EPOCH": "2025-12-14T20:00:06.000192", "MEAN_MOTION": 15.73310655, "ECCENTRICITY": 0.00042805, "INCLINATION": 69.9959, "RA_OF_ASC_NODE": 192.8617, "ARG_OF_PERICENTER": 279.7766, "MEAN_ANOMALY": 110.9516, "EPHEMERIS_TYPE": 0, "CLASSIFICATION_TYPE": "U", "NORAD_CAT_ID": 66836, "ELEMENT_SET_NO": 999, "REV_AT_EPOCH": 323, "BSTAR": -0.012801182, "MEAN_MOTION_DOT": -0.01554587, "MEAN_MOTION_DDOT": 0}, "tle": {"line1": "1 66836U 25280R   25348.83340278 -.01554587  00000+0 -12801-1 0  9992", "line2": "2 66836  69.9959 192.8617 0004280 279.7766 110.9516 15.73310655  3237"}}, "geometry": {"type": "Point", "coordinates": [-21.32576819231468, 55.75073822161495]}}, {"type": "Feature", "properties": {"norad_id": 66837, "name": "STARLINK-35729", "group": "last-30-days", "lat": 54.248983401432454, "lon": -19.38091836198388, "alt_km": 352.198894825945, "timestamp": "2025-12-15T11:38:35.907099+00:00", "meta": {"OBJECT_NAME": "STARLINK-35729", "OBJECT_ID": "2025-280S", "EPOCH": "2025-12-14T20:00:06.000192", "MEAN_MOTION": 15.73307808, "ECCENTRICITY": 0.00036604, "INCLINATION": 69.9958, "RA_OF_ASC_NODE": 192.8579, "ARG_OF_PERICENTER": 276.368, "MEAN_ANOMALY": 116.3346, "EPHEMERIS_TYPE": 0, "CLASSIFICATION_TYPE": "U", "NORAD_CAT_ID": 66837, "ELEMENT_SET_NO": 999, "REV_AT_EPOCH": 323, "BSTAR": -0.01329827, "MEAN_MOTION_DOT": -0.0163819, "MEAN_MOTION_DDOT": 0}, "tle": {"line1": "1 66837U 25280S   25348.83340278 -.01638190  00000+0 -13298-1 0  9997", "line2": "2 66837  69.9958 192.8579 0003660 276.3680 116.3346 15.73307808  3230"}}, "geometry": {"type": "Point", "coordinates": [-19.38091836198388, 54.248983401432454]}}]}